{"fetched_at":"2026-07-15T17:47:19.574Z","source":"https://celestrak.org/NORAD/elements/gp.php?NAME=KINEIS&FORMAT=JSON","constellation":"kineis","records":[{"OBJECT_NAME":"KINEIS-1B","OBJECT_ID":"2024-114A","EPOCH":"2026-07-15T03:57:28.313856","CLASSIFICATION_TYPE":"U","MEAN_MOTION":14.8066707,"ECCENTRICITY":0.0002973,"INCLINATION":97.9828,"RA_OF_ASC_NODE":220.2167,"ARG_OF_PERICENTER":38.599,"MEAN_ANOMALY":321.5434,"EPHEMERIS_TYPE":0,"NORAD_CAT_ID":60079,"ELEMENT_SET_NO":999,"REV_AT_EPOCH":11154,"BSTAR":0.000053799,"MEAN_MOTION_DOT":0.00000361,"MEAN_MOTION_DDOT":0},{"OBJECT_NAME":"KINEIS-1C","OBJECT_ID":"2024-114C","EPOCH":"2026-07-15T04:45:54.256032","CLASSIFICATION_TYPE":"U","MEAN_MOTION":14.80668832,"ECCENTRICITY":0.0002572,"INCLINATION":97.9841,"RA_OF_ASC_NODE":220.1056,"ARG_OF_PERICENTER":94.8708,"MEAN_ANOMALY":265.2798,"EPHEMERIS_TYPE":0,"NORAD_CAT_ID":60081,"ELEMENT_SET_NO":999,"REV_AT_EPOCH":11152,"BSTAR":0.000052497,"MEAN_MOTION_DOT":0.00000351,"MEAN_MOTION_DDOT":0},{"OBJECT_NAME":"KINEIS-1D","OBJECT_ID":"2024-114D","EPOCH":"2026-07-15T05:43:50.286144","CLASSIFICATION_TYPE":"U","MEAN_MOTION":14.76362591,"ECCENTRICITY":0.000297,"INCLINATION":97.9878,"RA_OF_ASC_NODE":216.0684,"ARG_OF_PERICENTER":97.9858,"MEAN_ANOMALY":262.1689,"EPHEMERIS_TYPE":0,"NORAD_CAT_ID":60082,"ELEMENT_SET_NO":999,"REV_AT_EPOCH":11126,"BSTAR":0.000048873,"MEAN_MOTION_DOT":0.00000288,"MEAN_MOTION_DDOT":0},{"OBJECT_NAME":"KINEIS-1E","OBJECT_ID":"2024-114E","EPOCH":"2026-07-15T05:11:34.118304","CLASSIFICATION_TYPE":"U","MEAN_MOTION":14.80694248,"ECCENTRICITY":0.0004137,"INCLINATION":97.8944,"RA_OF_ASC_NODE":219.1924,"ARG_OF_PERICENTER":109.5539,"MEAN_ANOMALY":250.612,"EPHEMERIS_TYPE":0,"NORAD_CAT_ID":60083,"ELEMENT_SET_NO":999,"REV_AT_EPOCH":11153,"BSTAR":0.000060651,"MEAN_MOTION_DOT":0.00000415,"MEAN_MOTION_DDOT":0},{"OBJECT_NAME":"KINEIS-1A","OBJECT_ID":"2024-114F","EPOCH":"2026-07-15T04:22:24.714336","CLASSIFICATION_TYPE":"U","MEAN_MOTION":14.80682307,"ECCENTRICITY":0.0005392,"INCLINATION":97.8917,"RA_OF_ASC_NODE":219.2525,"ARG_OF_PERICENTER":62.4917,"MEAN_ANOMALY":297.6843,"EPHEMERIS_TYPE":0,"NORAD_CAT_ID":60084,"ELEMENT_SET_NO":999,"REV_AT_EPOCH":11153,"BSTAR":0.000055159,"MEAN_MOTION_DOT":0.00000372,"MEAN_MOTION_DDOT":0},{"OBJECT_NAME":"KINEIS-3C","OBJECT_ID":"2024-172A","EPOCH":"2026-07-15T05:00:29.068992","CLASSIFICATION_TYPE":"U","MEAN_MOTION":14.72289699,"ECCENTRICITY":0.0002647,"INCLINATION":98.0438,"RA_OF_ASC_NODE":285.8107,"ARG_OF_PERICENTER":81.9689,"MEAN_ANOMALY":278.1818,"EPHEMERIS_TYPE":0,"NORAD_CAT_ID":61220,"ELEMENT_SET_NO":999,"REV_AT_EPOCH":9719,"BSTAR":0.00014933,"MEAN_MOTION_DOT":0.00000894,"MEAN_MOTION_DDOT":0},{"OBJECT_NAME":"KINEIS-3D","OBJECT_ID":"2024-172B","EPOCH":"2026-07-15T03:12:55.865952","CLASSIFICATION_TYPE":"U","MEAN_MOTION":14.7228588,"ECCENTRICITY":0.0002452,"INCLINATION":98.0423,"RA_OF_ASC_NODE":285.7485,"ARG_OF_PERICENTER":87.2533,"MEAN_ANOMALY":272.8955,"EPHEMERIS_TYPE":0,"NORAD_CAT_ID":61221,"ELEMENT_SET_NO":999,"REV_AT_EPOCH":9746,"BSTAR":0.000088545,"MEAN_MOTION_DOT":0.0000051,"MEAN_MOTION_DDOT":0},{"OBJECT_NAME":"KINEIS-3E","OBJECT_ID":"2024-172C","EPOCH":"2026-07-15T04:26:11.669856","CLASSIFICATION_TYPE":"U","MEAN_MOTION":14.72276337,"ECCENTRICITY":0.000177,"INCLINATION":98.0429,"RA_OF_ASC_NODE":285.7787,"ARG_OF_PERICENTER":88.5408,"MEAN_ANOMALY":271.6002,"EPHEMERIS_TYPE":0,"NORAD_CAT_ID":61222,"ELEMENT_SET_NO":999,"REV_AT_EPOCH":9747,"BSTAR":0.00014194,"MEAN_MOTION_DOT":0.00000847,"MEAN_MOTION_DDOT":0},{"OBJECT_NAME":"KINEIS-3A","OBJECT_ID":"2024-172D","EPOCH":"2026-07-15T04:02:21.776640","CLASSIFICATION_TYPE":"U","MEAN_MOTION":14.72309663,"ECCENTRICITY":0.0002181,"INCLINATION":98.0425,"RA_OF_ASC_NODE":285.8604,"ARG_OF_PERICENTER":42.4829,"MEAN_ANOMALY":317.6547,"EPHEMERIS_TYPE":0,"NORAD_CAT_ID":61223,"ELEMENT_SET_NO":999,"REV_AT_EPOCH":9689,"BSTAR":0.00014443,"MEAN_MOTION_DOT":0.00000863,"MEAN_MOTION_DDOT":0},{"OBJECT_NAME":"KINEIS-3B","OBJECT_ID":"2024-172E","EPOCH":"2026-07-15T05:15:12.595392","CLASSIFICATION_TYPE":"U","MEAN_MOTION":14.7229592,"ECCENTRICITY":0.0001612,"INCLINATION":98.0419,"RA_OF_ASC_NODE":285.9328,"ARG_OF_PERICENTER":28.4465,"MEAN_ANOMALY":331.683,"EPHEMERIS_TYPE":0,"NORAD_CAT_ID":61224,"ELEMENT_SET_NO":999,"REV_AT_EPOCH":9747,"BSTAR":0.00014329,"MEAN_MOTION_DOT":0.00000856,"MEAN_MOTION_DDOT":0},{"OBJECT_NAME":"KINEIS-5C","OBJECT_ID":"2024-219A","EPOCH":"2026-07-15T04:42:23.193792","CLASSIFICATION_TYPE":"U","MEAN_MOTION":14.723146,"ECCENTRICITY":0.0004155,"INCLINATION":97.9067,"RA_OF_ASC_NODE":354.2743,"ARG_OF_PERICENTER":172.9761,"MEAN_ANOMALY":187.1506,"EPHEMERIS_TYPE":0,"NORAD_CAT_ID":62081,"ELEMENT_SET_NO":999,"REV_AT_EPOCH":8787,"BSTAR":0.000053411,"MEAN_MOTION_DOT":0.00000289,"MEAN_MOTION_DDOT":0},{"OBJECT_NAME":"KINEIS-5D","OBJECT_ID":"2024-219B","EPOCH":"2026-07-15T05:20:33.909216","CLASSIFICATION_TYPE":"U","MEAN_MOTION":14.72493511,"ECCENTRICITY":0.0005285,"INCLINATION":97.918,"RA_OF_ASC_NODE":354.368,"ARG_OF_PERICENTER":167.3817,"MEAN_ANOMALY":192.7524,"EPHEMERIS_TYPE":0,"NORAD_CAT_ID":62082,"ELEMENT_SET_NO":999,"REV_AT_EPOCH":8788,"BSTAR":0.000074431,"MEAN_MOTION_DOT":0.00000424,"MEAN_MOTION_DDOT":0},{"OBJECT_NAME":"KINEIS-5E","OBJECT_ID":"2024-219C","EPOCH":"2026-07-15T04:08:22.519104","CLASSIFICATION_TYPE":"U","MEAN_MOTION":14.72299181,"ECCENTRICITY":0.0006773,"INCLINATION":97.9024,"RA_OF_ASC_NODE":354.3456,"ARG_OF_PERICENTER":164.5802,"MEAN_ANOMALY":195.5613,"EPHEMERIS_TYPE":0,"NORAD_CAT_ID":62083,"ELEMENT_SET_NO":999,"REV_AT_EPOCH":8788,"BSTAR":0.000050188,"MEAN_MOTION_DOT":0.00000269,"MEAN_MOTION_DDOT":0},{"OBJECT_NAME":"KINEIS-5A","OBJECT_ID":"2024-219D","EPOCH":"2026-07-15T05:14:51.237312","CLASSIFICATION_TYPE":"U","MEAN_MOTION":14.7225689,"ECCENTRICITY":0.0003726,"INCLINATION":97.8966,"RA_OF_ASC_NODE":354.6701,"ARG_OF_PERICENTER":199.662,"MEAN_ANOMALY":160.4444,"EPHEMERIS_TYPE":0,"NORAD_CAT_ID":62084,"ELEMENT_SET_NO":999,"REV_AT_EPOCH":8789,"BSTAR":0.00019397,"MEAN_MOTION_DOT":0.00001176,"MEAN_MOTION_DDOT":0},{"OBJECT_NAME":"KINEIS-5B","OBJECT_ID":"2024-219E","EPOCH":"2026-07-15T04:53:43.574784","CLASSIFICATION_TYPE":"U","MEAN_MOTION":14.78385447,"ECCENTRICITY":0.0002489,"INCLINATION":98.009,"RA_OF_ASC_NODE":359.8798,"ARG_OF_PERICENTER":145.2749,"MEAN_ANOMALY":214.8624,"EPHEMERIS_TYPE":0,"NORAD_CAT_ID":62085,"ELEMENT_SET_NO":999,"REV_AT_EPOCH":8814,"BSTAR":0.000077178,"MEAN_MOTION_DOT":0.0000051,"MEAN_MOTION_DDOT":0},{"OBJECT_NAME":"KINEIS-2C","OBJECT_ID":"2025-028B","EPOCH":"2026-07-15T03:56:44.674080","CLASSIFICATION_TYPE":"U","MEAN_MOTION":14.73429049,"ECCENTRICITY":0.000424,"INCLINATION":98.123,"RA_OF_ASC_NODE":250.5878,"ARG_OF_PERICENTER":159.3226,"MEAN_ANOMALY":200.8154,"EPHEMERIS_TYPE":0,"NORAD_CAT_ID":62929,"ELEMENT_SET_NO":999,"REV_AT_EPOCH":7673,"BSTAR":0.00012378,"MEAN_MOTION_DOT":0.00000752,"MEAN_MOTION_DDOT":0}]}
