KINEIS-1B               
1 60079U 24114A   26196.16491104  .00000361  00000+0  53799-4 0  9990
2 60079  97.9828 220.2167 0002973  38.5990 321.5434 14.80667070111545
KINEIS-1C               
1 60081U 24114C   26196.19854463  .00000351  00000+0  52497-4 0  9990
2 60081  97.9841 220.1056 0002572  94.8708 265.2798 14.80668832111528
KINEIS-1D               
1 60082U 24114D   26196.23877646  .00000288  00000+0  48873-4 0  9996
2 60082  97.9878 216.0684 0002970  97.9858 262.1689 14.76362591111266
KINEIS-1E               
1 60083U 24114E   26196.21636711  .00000415  00000+0  60651-4 0  9991
2 60083  97.8944 219.1924 0004137 109.5539 250.6120 14.80694248111538
KINEIS-1A               
1 60084U 24114F   26196.18223049  .00000372  00000+0  55159-4 0  9993
2 60084  97.8917 219.2525 0005392  62.4917 297.6843 14.80682307111534
KINEIS-3C               
1 61220U 24172A   26196.20866978  .00000894  00000+0  14933-3 0  9990
2 61220  98.0438 285.8107 0002647  81.9689 278.1818 14.72289699 97194
KINEIS-3D               
1 61221U 24172B   26196.13397993  .00000510  00000+0  88545-4 0  9995
2 61221  98.0423 285.7485 0002452  87.2533 272.8955 14.72285880 97469
KINEIS-3E               
1 61222U 24172C   26196.18485729  .00000847  00000+0  14194-3 0  9997
2 61222  98.0429 285.7787 0001770  88.5408 271.6002 14.72276337 97476
KINEIS-3A               
1 61223U 24172D   26196.16830760  .00000863  00000+0  14443-3 0  9990
2 61223  98.0425 285.8604 0002181  42.4829 317.6547 14.72309663 96894
KINEIS-3B               
1 61224U 24172E   26196.21889578  .00000856  00000+0  14329-3 0  9993
2 61224  98.0419 285.9328 0001612  28.4465 331.6830 14.72295920 97476
KINEIS-5C               
1 62081U 24219A   26196.19610178  .00000289  00000+0  53411-4 0  9998
2 62081  97.9067 354.2743 0004155 172.9761 187.1506 14.72314600 87879
KINEIS-5D               
1 62082U 24219B   26196.22261469  .00000424  00000+0  74431-4 0  9994
2 62082  97.9180 354.3680 0005285 167.3817 192.7524 14.72493511 87884
KINEIS-5E               
1 62083U 24219C   26196.17248286  .00000269  00000+0  50188-4 0  9991
2 62083  97.9024 354.3456 0006773 164.5802 195.5613 14.72299181 87886
KINEIS-5A               
1 62084U 24219D   26196.21864858  .00001176  00000+0  19397-3 0  9990
2 62084  97.8966 354.6701 0003726 199.6620 160.4444 14.72256890 87893
KINEIS-5B               
1 62085U 24219E   26196.20397656  .00000510  00000+0  77178-4 0  9990
2 62085  98.0090 359.8798 0002489 145.2749 214.8624 14.78385447 88142
KINEIS-2C               
1 62929U 25028B   26196.16440595  .00000752  00000+0  12378-3 0  9990
2 62929  98.1230 250.5878 0004240 159.3226 200.8154 14.73429049 76732
